STARLINK-31758          
1 59621U 24080W   26068.27576382  .00005081  00000+0  19416-3 0  9996
2 59621  43.0020  36.4146 0002114 253.3601 106.7019 15.27557412104510
TROLL                   
1 62658U 25009BB  26068.22522958  .00013174  00000+0  48220-3 0  9994
2 62658  97.3932 150.7169 0001816  59.1850 300.9568 15.28164315118170
